HELIOS 1B               
1 25977U 99064A   20120.69183190  .00000045  00000-0  12728-4 0  9993
2 25977  98.2746 273.8927 0002375 116.4429 243.7027 14.82473749367897
TERRA                   
1 25994U 99068A   20120.82712454  .00000010  00000-0  12337-4 0  9990
2 25994  98.2136 195.7825 0001151 109.7094 250.4213 14.57126819 83232
SL-16 R/B               
1 26070U 00006B   20120.75849823  .00000180  00000-0  11635-3 0  9990
2 26070  71.0014 275.5766 0017489 204.8255 155.2028 14.15460734 45741
TITAN 4B R/B            
1 26474U 00047B   20120.57708735  .00000078  00000-0  17690-4 0  9993
2 26474  67.9943 210.2269 0060738 252.7423 106.7067 14.95942726 71930
ENVISAT                 
1 27386U 02009A   20120.66070613  .00000010  00000-0  16587-4 0  9993
2 27386  98.1380 130.2727 0001377  87.8326  47.0351 14.37978834951606
IDEFIX & ARIANE 42P R/B 
1 27422U 02021B   20120.66199006  .00000011  00000-0  20770-4 0  9996
2 27422  98.3468  83.7618 0012730  20.6320 339.5374 14.29286548938199
AQUA                    
1 27424U 02022A   20120.78395784  .00000105  00000-0  33316-4 0  9997
2 27424  98.2060  62.1232 0002503 109.7083 281.3850 14.57118618956784
CZ-4B R/B               
1 27432U 02024C   20120.75125723 -.00000028  00000-0  94929-5 0  9992
2 27432  99.0884 122.1177 0049704 314.5915 219.8839 14.14091990926769
MIDORI II (ADEOS-II)    
1 27597U 02056A   20120.75067856  .00000051  00000-0  38336-4 0  9995
2 27597  98.5159  69.5717 0001974 106.3798 253.7600 14.27443419904868
H-2A R/B                
1 27601U 02056E   20120.84471421  .00000027  00000-0  24491-4 0  9998
2 27601  98.2313 159.1036 0073264  63.0127 109.2072 14.31946891907733
CZ-4B R/B               
1 28059U 03049C   20120.76099794  .00000004  00000-0  12828-4 0  9995
2 28059  98.4871  36.7395 0048942 288.0329  71.5537 14.52596926875765
CZ-2C R/B               
1 28222U 04012C   20120.64377773  .00000181  00000-0  14930-4 0  9993
2 28222  97.6725  83.0699 0046653 195.3903 337.6653 15.10359702878620
SL-16 R/B               
1 28353U 04021B   20120.75639303  .00000091  00000-0  72409-4 0  9995
2 28353  71.0020  41.4571 0003632  30.3541 329.7791 14.14226124820257
CZ-4B R/B               
1 28415U 04035C   20120.69443985 -.00000219  00000-0 -99262-5 0  9992
2 28415  97.6188 162.7924 0052224 157.0398 203.3181 15.06840702856291
CZ-2C R/B               
1 28480U 04046B   20120.71950413 -.00000040  00000-0  85306-7 0  9995
2 28480  98.0839 159.4279 0142084   9.9420  96.6860 14.25720163803479
ARIANE 5 R/B            
1 28499U 04049H   20120.84780517  .00000046  00000-0  12925-4 0  9997
2 28499  98.0507 222.4774 0093460  70.7302  76.8346 14.80022980828907
CZ-2D R/B               
1 28738U 05024B   20120.80603835  .00000382  00000-0  25867-4 0  9992
2 28738  97.3868 144.9827 0011818   0.4410 359.6829 15.12011235814055
SUZAKU (ASTRO-EII)      
1 28773U 05025A   20120.87473003  .00001070  00000-0  47763-4 0  9995
2 28773  31.3830 332.5337 0004238  77.7912 282.3210 15.17513953816578
ALOS (DAICHI)           
1 28931U 06002A   20120.91490640  .00000098  00000-0  27909-4 0  9997
2 28931  97.8426 109.0317 0000532  88.4649 271.6621 14.62702511760604
H-2A R/B                
1 28932U 06002B   20120.72067358  .00000163  00000-0  21191-4 0  9993
2 28932  98.3202 108.0145 0089915 120.5016  51.5141 14.92195992773876
AKARI (ASTRO-F)         
1 28939U 06005A   20120.66174197  .00002368  00000-0  65031-4 0  9996
2 28939  98.2287  89.1821 0095071 134.2330 226.6766 15.34039547773414
RESURS-DK 1             
1 29228U 06021A   20120.81674369  .00000065  00000-0  12214-4 0  9996
2 29228  69.9350 311.8157 0005446 210.1344 149.9504 15.02532495765441
GENESIS 1               
1 29252U 06029A   20120.66290388  .00000241  00000-0  21783-4 0  9996
2 29252  64.5200 101.1596 0017337 179.1315 180.9841 15.18093404760694
CZ-4B R/B               
1 29507U 06046C   20120.81473977  .00000893  00000-0  74066-4 0  9997
2 29507  97.7555 142.7928 0047438 328.6260  31.2135 15.00593646738078
CZ-2C R/B               
1 31114U 07010B   20120.59197448  .00000023  00000-0  29412-4 0  9997
2 31114  98.2678 336.7353 0060681  50.3323 310.3185 14.19318421676070
COSMO-SKYMED 1          
1 31598U 07023A   20120.80279782 -.00000021  00000-0  39339-5 0  9992
2 31598  97.8902 304.6808 0001464  93.0607 267.0783 14.82152274697621
GENESIS 2               
1 31789U 07028A   20120.78680320  .00000252  00000-0  22802-4 0  9991
2 31789  64.5009 142.2417 0049317 249.6889 109.8930 15.17229565707798
COSMOS 2428             
1 31792U 07029A   20120.76769348 -.00000269  00000-0 -11990-3 0  9997
2 31792  70.9206  15.2077 0006375 142.9557 217.2005 14.12358760661900
SL-16 R/B               
1 31793U 07029B   20120.89224237  .00000185  00000-0  12149-3 0  9997
2 31793  70.9764 348.3719 0002062 276.2774  94.5748 14.14424976662821
KORONAS-FOTON           
1 33504U 09003A   20120.51372339  .00000401  00000-0  19310-4 0  9998
2 33504  82.4403 271.5093 0020714  88.9044 271.4562 15.15617365620074
H-2A R/B                
1 38341U 12025E   20120.70041347  .00000132  00000-0  23019-4 0  9995
2 38341  98.4935 272.5788 0056100  29.8255 330.6135 14.84018110430131
CUSAT 2 & FALCON 9 R/B  
1 39271U 13055G   20120.81185840  .00002875  00000-0  69612-4 0  9996
2 39271  80.9656 319.3138 0589744 316.5446  39.0652 14.47599387343699
SL-4 R/B                
1 39679U 14021B   20120.81854513  .00000438  00000-0  39372-4 0  9995
2 39679  51.6164 333.1151 0172458 137.1245 224.3321 15.06373993331691
ALOS-2                  
1 39766U 14029A   20120.81548307  .00000077  00000-0  17246-4 0  9996
2 39766  97.9196 218.1083 0001514  88.8898 271.2489 14.79471559320502
SL-27 R/B               
1 40354U 14084B   20120.74270145  .00000939  00000-0  24156-4 0  9991
2 40354  74.7359 128.8667 0038221 340.2555  19.7174 15.40157870300630
YAOGAN 29               
1 41038U 15069A   20120.91043749 -.00000009  00000-0  57148-5 0  9999
2 41038  98.0084 108.9703 0002174  69.2298 290.9155 14.80444487239093
ASTRO-H (HITOMI)        
1 41337U 16012A   20120.77788277  .00000285  00000-0  16194-4 0  9996
2 41337  31.0063 318.3831 0012496 309.4394  50.5134 14.98676092230199
SHENZHOU-11 MODULE      
1 41868U 16061G   20120.85822142  .00047598  91659-5  12936-3 0  9990
2 41868  42.7886  83.6782 0012123 165.0617 285.1954 15.94105648198301
HXMT (HUIYAN)           
1 42758U 17034A   20120.87895828  .00000099  00000-0  19877-4 0  9995
2 42758  43.0191 302.4658 0009792  77.9889  59.0695 15.08809379158535
CZ-2C R/B               
1 43521U 18054D   20120.71488631  .00000487  00000-0  28774-4 0  9997
2 43521  35.1528 120.3198 0082325  47.4743 313.2887 15.10977043101779
AEOLUS                  
1 43600U 18066A   20120.61104297  .00027172  00000-0  10660-3 0  9994
2 43600  96.7207 127.7395 0006823  87.7588 272.4466 15.86889436 97625
SAOCOM 1A               
1 43641U 18076A   20120.81099862  .00000009  00000-0  77013-5 0  9990
2 43641  97.8891 307.6215 0001429  82.3036 277.8337 14.82153395 84396
CREW DRAGON DEMO-1 DEB  
1 44064U 19011B   20120.53762490  .00012808  00000-0  13877-3 0  9999
2 44064  51.6379 200.1173 0003191 233.3854 126.6854 15.63940845 65252
